PERSEUS-M1              
1 40039U 14033AF  26155.05690024  .00002617  00000+0  24106-3 0  9993
2 40039  97.9641  98.9742 0011068 349.8422  10.2573 14.95587199648678
POLYITAN-1              
1 40042U 14033AJ  26154.99786768  .00019995  00000+0  63302-3 0  9998
2 40042  98.0949 180.0160 0007537 180.7308 179.3922 15.32773760651574
TIGRISAT                
1 40043U 14033AK  26154.97768297  .00002692  00000+0  31399-3 0  9991
2 40043  97.7821 305.2937 0050618 117.3579 243.2801 14.85106187643665
AEROCUBE 6A             
1 40045U 14033AM  26154.93166257  .00006356  00000+0  53535-3 0  9994
2 40045  97.7216 322.0234 0039359  61.3448 299.1723 14.97953444644634
AEROCUBE 6B             
1 40046U 14033AN  26155.08038610  .00007443  00000+0  60271-3 0  9996
2 40046  97.7216 321.9304 0039252  53.3146 307.1674 14.99411061644797
CANX-4                  
1 40055U 14034C   26154.64168014  .00001125  00000+0  15162-3 0  9990
2 40055  98.3136  29.4566 0013938  57.9820 302.2744 14.81238223642528
CANX-5                  
1 40056U 14034D   26155.11312660  .00001234  00000+0  16550-3 0  9995
2 40056  98.3139  29.9882 0013923  56.6569 303.5973 14.81257124633404
UKUBE-1                 
1 40074U 14037F   26154.54849194  .00010176  00000+0  57523-3 0  9991
2 40074  98.4235 156.3901 0001646 150.7111 209.4210 15.13321645646494
BRITE-PL2 (HEWELIUSZ)   
1 40119U 14049B   26154.31365131  .00002604  00000+0  24600-3 0  9990
2 40119  97.9084 266.2083 0014815 151.1613 209.0429 14.94537783639373
AEROCUBE 5C             
1 40965U 15058B   26155.02818589  .00003158  00000+0  28310-3 0  9996
2 40965  64.7685 303.5247 0130282  68.4293 293.0644 14.91385374363694
AEROCUBE 7              
1 40966U 15058C   26154.79454420  .00004353  00000+0  35185-3 0  9996
2 40966  64.7636 286.7614 0120013  67.0259 294.3464 14.95631029363957
FOX-1A (AO-85)          
1 40967U 15058D   26155.07149730  .00003290  00000+0  29844-3 0  9998
2 40967  64.7763 319.7410 0129768  61.7322 299.6816 14.90899033111617
SINOD-D 1               
1 40968U 15058E   26154.64038366  .00004348  00000+0  35119-3 0  9990
2 40968  64.7764 301.3323 0118307  58.5158 302.7453 14.95808519114639
SNAP-3 ALICE            
1 40970U 15058G   26155.08410679  .00123448  00000+0  16361-2 0  9993
2 40970  64.7498 149.1214 0031925  19.0805 341.1527 15.57031907114844
LMRST-SAT               
1 40971U 15058H   26154.82219049  .00003279  00000+0  29922-3 0  9990
2 40971  64.7769 316.8280 0131450  63.8638 297.5928 14.90521737111563
SNAP-3 EDDIE            
1 40972U 15058J   26155.08430323  .00125715  00000+0  15924-2 0  9996
2 40972  64.7420 139.9394 0031686  23.1036 337.1526 15.58233279116981
PROPCUBE 3              
1 40973U 15058K   26154.55586732  .00003931  00000+0  32911-3 0  9995
2 40973  64.7695 295.1216 0123462  65.3437 296.0475 14.94172395112769
BISONSAT                
1 40974U 15058L   26154.51031273  .00010633  00000+0  52055-3 0  9995
2 40974  64.7588 217.8525 0078228  52.8809 307.9429 15.15903390113547
SNAP-3 JIMI             
1 40975U 15058M   26153.67657186  .00005808  00000+0  40231-3 0  9990
2 40975  64.7660 265.6777 0105549  61.3394 299.8287 15.02157822112042
PROPCUBE 1 (FLORA)      
1 40976U 15058N   26154.63051971  .00003319  00000+0  31462-3 0  9999
2 40976  64.7756 337.2500 0130197  66.2388 295.2315 14.89150106114241
SINOD-D 3               
1 40977U 15058P   26154.65224256  .00004454  00000+0  37754-3 0  9991
2 40977  64.7737 318.0812 0118705  63.5404 297.7829 14.93920037112736
HORYU-4                 
1 41340U 16012D   26152.43486084  .00260233  00000+0  10081-2 0  9992
2 41340  30.9850 193.7734 0002292 171.6706 188.3991 15.85409012568302
RAVAN                   
1 41849U 16067B   26155.29456255  .00055614  00000+0  87529-3 0  9997
2 41849  97.9900  43.3893 0006225  65.8801 294.3101 15.53401018525690
CELTEE 1                
1 41850U 16067C   26154.57667700  .00006337  00000+0  30174-3 0  9990
2 41850  98.0684  20.2158 0000637  73.6065 286.5238 15.19540482523818
OPTICUBE 04             
1 41851U 16067D   26154.55750612  .00002250  00000+0  14407-3 0  9995
2 41851  98.0706   6.1301 0016119 158.9050 201.2846 15.09597028523119
AEROCUBE 8D             
1 41852U 16067E   26154.56702366  .00008491  00000+0  35166-3 0  9998
2 41852  98.0693  23.7032 0003808 159.1321 201.0071 15.24196511523999
AEROCUBE 8C             
1 41853U 16067F   26155.11933043  .00008936  00000+0  36699-3 0  9995
2 41853  98.0566  21.5419 0006760 103.7079 256.4909 15.24450194524073
CORVUS BC2              
1 42846U 17042X   26154.97491227  .00003714  00000+0  25689-3 0  9994
2 42846  97.4065 316.8404 0013960 150.8066 209.3945 15.06210425485070
CORVUS BC1              
1 42847U 17042Y   26155.23671758  .00003822  00000+0  26310-3 0  9996
2 42847  97.4094 317.8976 0013376 128.2969 231.9464 15.06382475485140
MAKERSAT 0              
1 43016U 17073D   26154.59294423  .00024382  00000+0  66961-3 0  9997
2 43016  97.4651  37.0098 0106863 322.1681  37.2082 15.31566895464388
